ALOS (DAICHI)           
1 28931U 06002A   26039.43310650  .00001816  00000+0  31315-3 0  9994
2 28931  98.1170 355.5475 0002002  66.8950 293.2466 14.69712379 69188
H-2A R/B                
1 28932U 06002B   26039.37123247  .00008512  00000+0  43384-3 0  9991
2 28932  98.2359 183.8993 0052820 342.2233  17.7148 15.15829451 89993
RESURS-DK 1             
1 29228U 06021A   26039.17461401  .00003415  00000+0  20135-3 0  9992
2 29228  69.9348 313.3608 0004667 205.9509 154.1424 15.12571404 83069
CZ-4B R/B               
1 29507U 06046C   26039.11942261  .00005699  00000+0  29118-3 0  9997
2 29507  97.5653  84.1052 0033752  12.8880 347.3207 15.16583675 55561
CZ-2C R/B               
1 31114U 07010B   26039.34812979  .00000146  00000+0  86122-4 0  9994
2 31114  98.3969 154.1005 0059324  20.6098 339.7454 14.20235895975555
COSMO-SKYMED 1          
1 31598U 07023A   26039.51012389  .00003945  00000+0  35430-3 0  9995
2 31598  97.8857 230.3141 0000878  77.4195 282.7124 14.96301520 10549
COSMOS 2428             
1 31792U 07029A   26039.08387586  .00000326  00000+0  20058-3 0  9993
2 31792  70.9396 265.4907 0007274 309.6878  50.3601 14.12932366959917
SL-16 R/B               
1 31793U 07029B   26039.49765354  .00000420  00000+0  24248-3 0  9992
2 31793  70.9733 233.7468 0001940 277.5129 102.5667 14.14831745961241
KORONAS-FOTON           
1 33504U 09003A   26039.19082706  .00011406  00000+0  26163-3 0  9992
2 33504  82.4324 306.5251 0008898 264.1288  95.8944 15.42543076941196
CZ-2C R/B               
1 37731U 11030B   26039.43783868  .00001885  00000+0  24346-3 0  9996
2 37731  97.8495 357.3006 0054250  85.6420  29.0351 14.81108841785769
H-2A R/B                
1 38341U 12025E   26039.48079254  .00004104  00000+0  37465-3 0  9994
2 38341  98.4680   4.2080 0045831  49.2904 311.2281 14.94908411743855
SHIJIAN-16 (SJ-16)      
1 39358U 13057A   26039.53286609  .00001668  00000+0  16599-3 0  9996
2 39358  74.9705 240.2811 0016801 185.4123 174.6886 14.92241085667151
