CCSDS_OMM_VERS = 2.0
CREATION_DATE  = 
ORIGINATOR     = 

OBJECT_NAME    = ALOS (DAICHI)
OBJECT_ID      = 2006-002A
CENTER_NAME    = EARTH
REF_FRAME      = TEME
TIME_SYSTEM    = UTC
MEAN_ELEMENT_THEORY = SGP/SGP4

EPOCH          = 2026-02-08T10:23:40.401600
MEAN_MOTION    = 14.69712379
ECCENTRICITY   = .0002002
INCLINATION    = 98.1170
RA_OF_ASC_NODE = 355.5475
ARG_OF_PERICENTER = 66.8950
MEAN_ANOMALY   = 293.2466

EPHEMERIS_TYPE = 0
CLASSIFICATION_TYPE = U
NORAD_CAT_ID   = 28931
ELEMENT_SET_NO = 999
REV_AT_EPOCH   = 6918
BSTAR          = .31315E-3
MEAN_MOTION_DOT = .1816E-4
MEAN_MOTION_DDOT = 0

CCSDS_OMM_VERS = 2.0
CREATION_DATE  = 
ORIGINATOR     = 

OBJECT_NAME    = H-2A R/B
OBJECT_ID      = 2006-002B
CENTER_NAME    = EARTH
REF_FRAME      = TEME
TIME_SYSTEM    = UTC
MEAN_ELEMENT_THEORY = SGP/SGP4

EPOCH          = 2026-02-08T08:54:34.485408
MEAN_MOTION    = 15.15829451
ECCENTRICITY   = .005282
INCLINATION    = 98.2359
RA_OF_ASC_NODE = 183.8993
ARG_OF_PERICENTER = 342.2233
MEAN_ANOMALY   = 17.7148

EPHEMERIS_TYPE = 0
CLASSIFICATION_TYPE = U
NORAD_CAT_ID   = 28932
ELEMENT_SET_NO = 999
REV_AT_EPOCH   = 8999
BSTAR          = .43384E-3
MEAN_MOTION_DOT = .8512E-4
MEAN_MOTION_DDOT = 0

CCSDS_OMM_VERS = 2.0
CREATION_DATE  = 
ORIGINATOR     = 

OBJECT_NAME    = RESURS-DK 1
OBJECT_ID      = 2006-021A
CENTER_NAME    = EARTH
REF_FRAME      = TEME
TIME_SYSTEM    = UTC
MEAN_ELEMENT_THEORY = SGP/SGP4

EPOCH          = 2026-02-08T04:11:26.650464
MEAN_MOTION    = 15.12571404
ECCENTRICITY   = .00046678
INCLINATION    = 69.9348
RA_OF_ASC_NODE = 313.3608
ARG_OF_PERICENTER = 205.9509
MEAN_ANOMALY   = 154.1424

EPHEMERIS_TYPE = 0
CLASSIFICATION_TYPE = U
NORAD_CAT_ID   = 29228
ELEMENT_SET_NO = 999
REV_AT_EPOCH   = 8306
BSTAR          = .20134908E-3
MEAN_MOTION_DOT = .3415E-4
MEAN_MOTION_DDOT = 0

CCSDS_OMM_VERS = 2.0
CREATION_DATE  = 
ORIGINATOR     = 

OBJECT_NAME    = CZ-4B R/B
OBJECT_ID      = 2006-046C
CENTER_NAME    = EARTH
REF_FRAME      = TEME
TIME_SYSTEM    = UTC
MEAN_ELEMENT_THEORY = SGP/SGP4

EPOCH          = 2026-02-08T02:51:58.113504
MEAN_MOTION    = 15.16583675
ECCENTRICITY   = .00337521
INCLINATION    = 97.5653
RA_OF_ASC_NODE = 84.1052
ARG_OF_PERICENTER = 12.8880
MEAN_ANOMALY   = 347.3207

EPHEMERIS_TYPE = 0
CLASSIFICATION_TYPE = U
NORAD_CAT_ID   = 29507
ELEMENT_SET_NO = 999
REV_AT_EPOCH   = 5556
BSTAR          = .29117513E-3
MEAN_MOTION_DOT = .5699E-4
MEAN_MOTION_DDOT = 0

CCSDS_OMM_VERS = 2.0
CREATION_DATE  = 
ORIGINATOR     = 

OBJECT_NAME    = CZ-2C R/B
OBJECT_ID      = 2007-010B
CENTER_NAME    = EARTH
REF_FRAME      = TEME
TIME_SYSTEM    = UTC
MEAN_ELEMENT_THEORY = SGP/SGP4

EPOCH          = 2026-02-08T08:21:18.413856
MEAN_MOTION    = 14.20235895
ECCENTRICITY   = .0059324
INCLINATION    = 98.3969
RA_OF_ASC_NODE = 154.1005
ARG_OF_PERICENTER = 20.6098
MEAN_ANOMALY   = 339.7454

EPHEMERIS_TYPE = 0
CLASSIFICATION_TYPE = U
NORAD_CAT_ID   = 31114
ELEMENT_SET_NO = 999
REV_AT_EPOCH   = 97555
BSTAR          = .86122E-4
MEAN_MOTION_DOT = .146E-5
MEAN_MOTION_DDOT = 0

CCSDS_OMM_VERS = 2.0
CREATION_DATE  = 
ORIGINATOR     = 

OBJECT_NAME    = COSMO-SKYMED 1
OBJECT_ID      = 2007-023A
CENTER_NAME    = EARTH
REF_FRAME      = TEME
TIME_SYSTEM    = UTC
MEAN_ELEMENT_THEORY = SGP/SGP4

EPOCH          = 2026-02-08T12:14:34.704096
MEAN_MOTION    = 14.96301520
ECCENTRICITY   = .0000878
INCLINATION    = 97.8857
RA_OF_ASC_NODE = 230.3141
ARG_OF_PERICENTER = 77.4195
MEAN_ANOMALY   = 282.7124

EPHEMERIS_TYPE = 0
CLASSIFICATION_TYPE = U
NORAD_CAT_ID   = 31598
ELEMENT_SET_NO = 999
REV_AT_EPOCH   = 1054
BSTAR          = .3543E-3
MEAN_MOTION_DOT = .3945E-4
MEAN_MOTION_DDOT = 0

CCSDS_OMM_VERS = 2.0
CREATION_DATE  = 
ORIGINATOR     = 

OBJECT_NAME    = COSMOS 2428
OBJECT_ID      = 2007-029A
CENTER_NAME    = EARTH
REF_FRAME      = TEME
TIME_SYSTEM    = UTC
MEAN_ELEMENT_THEORY = SGP/SGP4

EPOCH          = 2026-02-08T02:00:46.874304
MEAN_MOTION    = 14.12932366
ECCENTRICITY   = .0007274
INCLINATION    = 70.9396
RA_OF_ASC_NODE = 265.4907
ARG_OF_PERICENTER = 309.6878
MEAN_ANOMALY   = 50.3601

EPHEMERIS_TYPE = 0
CLASSIFICATION_TYPE = U
NORAD_CAT_ID   = 31792
ELEMENT_SET_NO = 999
REV_AT_EPOCH   = 95991
BSTAR          = .20058E-3
MEAN_MOTION_DOT = .326E-5
MEAN_MOTION_DDOT = 0

CCSDS_OMM_VERS = 2.0
CREATION_DATE  = 
ORIGINATOR     = 

OBJECT_NAME    = SL-16 R/B
OBJECT_ID      = 2007-029B
CENTER_NAME    = EARTH
REF_FRAME      = TEME
TIME_SYSTEM    = UTC
MEAN_ELEMENT_THEORY = SGP/SGP4

EPOCH          = 2026-02-08T11:56:37.265856
MEAN_MOTION    = 14.14831745
ECCENTRICITY   = .000194
INCLINATION    = 70.9733
RA_OF_ASC_NODE = 233.7468
ARG_OF_PERICENTER = 277.5129
MEAN_ANOMALY   = 102.5667

EPHEMERIS_TYPE = 0
CLASSIFICATION_TYPE = U
NORAD_CAT_ID   = 31793
ELEMENT_SET_NO = 999
REV_AT_EPOCH   = 96124
BSTAR          = .24248E-3
MEAN_MOTION_DOT = .42E-5
MEAN_MOTION_DDOT = 0

CCSDS_OMM_VERS = 2.0
CREATION_DATE  = 
ORIGINATOR     = 

OBJECT_NAME    = KORONAS-FOTON
OBJECT_ID      = 2009-003A
CENTER_NAME    = EARTH
REF_FRAME      = TEME
TIME_SYSTEM    = UTC
MEAN_ELEMENT_THEORY = SGP/SGP4

EPOCH          = 2026-02-08T04:34:47.457984
MEAN_MOTION    = 15.42543076
ECCENTRICITY   = .0008898
INCLINATION    = 82.4324
RA_OF_ASC_NODE = 306.5251
ARG_OF_PERICENTER = 264.1288
MEAN_ANOMALY   = 95.8944

EPHEMERIS_TYPE = 0
CLASSIFICATION_TYPE = U
NORAD_CAT_ID   = 33504
ELEMENT_SET_NO = 999
REV_AT_EPOCH   = 94119
BSTAR          = .26163E-3
MEAN_MOTION_DOT = .11406E-3
MEAN_MOTION_DDOT = 0

CCSDS_OMM_VERS = 2.0
CREATION_DATE  = 
ORIGINATOR     = 

OBJECT_NAME    = CZ-2C R/B
OBJECT_ID      = 2011-030B
CENTER_NAME    = EARTH
REF_FRAME      = TEME
TIME_SYSTEM    = UTC
MEAN_ELEMENT_THEORY = SGP/SGP4

EPOCH          = 2026-02-08T10:30:29.261952
MEAN_MOTION    = 14.81108841
ECCENTRICITY   = .005425
INCLINATION    = 97.8495
RA_OF_ASC_NODE = 357.3006
ARG_OF_PERICENTER = 85.6420
MEAN_ANOMALY   = 29.0351

EPHEMERIS_TYPE = 0
CLASSIFICATION_TYPE = U
NORAD_CAT_ID   = 37731
ELEMENT_SET_NO = 999
REV_AT_EPOCH   = 78576
BSTAR          = .24346E-3
MEAN_MOTION_DOT = .1885E-4
MEAN_MOTION_DDOT = 0

CCSDS_OMM_VERS = 2.0
CREATION_DATE  = 
ORIGINATOR     = 

OBJECT_NAME    = H-2A R/B
OBJECT_ID      = 2012-025E
CENTER_NAME    = EARTH
REF_FRAME      = TEME
TIME_SYSTEM    = UTC
MEAN_ELEMENT_THEORY = SGP/SGP4

EPOCH          = 2026-02-08T11:32:20.475456
MEAN_MOTION    = 14.94908411
ECCENTRICITY   = .0045831
INCLINATION    = 98.4680
RA_OF_ASC_NODE = 4.2080
ARG_OF_PERICENTER = 49.2904
MEAN_ANOMALY   = 311.2281

EPHEMERIS_TYPE = 0
CLASSIFICATION_TYPE = U
NORAD_CAT_ID   = 38341
ELEMENT_SET_NO = 999
REV_AT_EPOCH   = 74385
BSTAR          = .37465E-3
MEAN_MOTION_DOT = .4104E-4
MEAN_MOTION_DDOT = 0

CCSDS_OMM_VERS = 2.0
CREATION_DATE  = 
ORIGINATOR     = 

OBJECT_NAME    = SHIJIAN-16 (SJ-16)
OBJECT_ID      = 2013-057A
CENTER_NAME    = EARTH
REF_FRAME      = TEME
TIME_SYSTEM    = UTC
MEAN_ELEMENT_THEORY = SGP/SGP4

EPOCH          = 2026-02-08T12:47:19.630176
MEAN_MOTION    = 14.92241085
ECCENTRICITY   = .0016801
INCLINATION    = 74.9705
RA_OF_ASC_NODE = 240.2811
ARG_OF_PERICENTER = 185.4123
MEAN_ANOMALY   = 174.6886

EPHEMERIS_TYPE = 0
CLASSIFICATION_TYPE = U
NORAD_CAT_ID   = 39358
ELEMENT_SET_NO = 999
REV_AT_EPOCH   = 66715
BSTAR          = .16599E-3
MEAN_MOTION_DOT = .1668E-4
MEAN_MOTION_DDOT = 0

